0 DELTA 1 DEB
1 21550U 75052HE  13281.39086245  .00000166  00000-0  82346-3 0    28
2 21550 099.8526 212.1868 0548266 177.0442 335.2505 12.44335299 16000
0 DELTA 1 DEB
1 21550U 75052HE  13283.63630938  .00000167  00000-0  82665-3 0    37
2 21550 099.8530 214.0337 0548325 172.4140 313.9939 12.44336512 16280
0 DELTA 1 DEB
1 21550U 75052HE  13286.37073664  .00000193  00000-0  93402-3 0    49
2 21550 099.8538 216.2826 0548409 166.7800 323.1879 12.44337383 16628
0 DELTA 1 DEB
1 21550U 75052HE  13288.30596265  .00000267  00000-0  12386-2 0    55
2 21550 099.8540 217.8746 0548484 162.8023 352.2621 12.44338059 16861
0 DELTA 1 DEB
1 21550U 75052HE  13291.35507410  .00000280  00000-0  12911-2 0    68
2 21550 099.8543 220.3828 0548604 156.5300 331.1352 12.44339596 17243
0 DELTA 1 DEB
1 21550U 75052HE  13292.78103146  .00000312  00000-0  14262-2 0    72
2 21550 099.8544 221.5559 0548645 153.6105 238.8813 12.44340298 17420
0 DELTA 1 DEB
1 21550U 75052HE  13294.71906588  .00000310  00000-0  14136-2 0    87
2 21550 099.8544 223.1501 0548692 149.6269 280.5572 12.44341675 17665
